{"type":"FeatureCollection","features":[{"type":"Feature","properties":{"time and day":"2016-03-04 2:07","timestamp":"02:07:45"},"geometry":{"type":"Point","coordinates":[-82.311412,9.403426]}},{"type":"Feature","properties":{"time and day":"08:00.0","timestamp":"02:08:00"},"geometry":{"type":"Point","coordinates":[-82.312515,9.404055]}},{"type":"Feature","properties":{"time and day":"09:00.0","timestamp":"02:09:00"},"geometry":{"type":"Point","coordinates":[-82.317076,9.404753]}},{"type":"Feature","properties":{"time and day":"10:00.0","timestamp":"02:10:00"},"geometry":{"type":"Point","coordinates":[-82.322069,9.405675]}},{"type":"Feature","properties":{"time and day":"11:00.0","timestamp":"02:11:00"},"geometry":{"type":"Point","coordinates":[-82.327072,9.406463]}},{"type":"Feature","properties":{"time and day":"12:00.0","timestamp":"02:12:00"},"geometry":{"type":"Point","coordinates":[-82.332296,9.40651]}},{"type":"Feature","properties":{"time and day":"13:00.0","timestamp":"02:13:00"},"geometry":{"type":"Point","coordinates":[-82.337348,9.407159]}},{"type":"Feature","properties":{"time and day":"14:00.0","timestamp":"02:14:00"},"geometry":{"type":"Point","coordinates":[-82.341828,9.407698]}},{"type":"Feature","properties":{"time and day":"15:00.0","timestamp":"02:15:00"},"geometry":{"type":"Point","coordinates":[-82.346183,9.407951]}},{"type":"Feature","properties":{"time and day":"16:00.0","timestamp":"02:16:00"},"geometry":{"type":"Point","coordinates":[-82.350408,9.407705]}},{"type":"Feature","properties":{"time and day":"17:00.0","timestamp":"02:17:00"},"geometry":{"type":"Point","coordinates":[-82.354763,9.406668]}},{"type":"Feature","properties":{"time and day":"18:00.0","timestamp":"02:18:00"},"geometry":{"type":"Point","coordinates":[-82.359422,9.4064]}},{"type":"Feature","properties":{"time and day":"19:00.0","timestamp":"02:19:00"},"geometry":{"type":"Point","coordinates":[-82.364387,9.406862]}},{"type":"Feature","properties":{"time and day":"20:00.0","timestamp":"02:20:00"},"geometry":{"type":"Point","coordinates":[-82.369237,9.406242]}},{"type":"Feature","properties":{"time and day":"21:00.0","timestamp":"02:21:00"},"geometry":{"type":"Point","coordinates":[-82.374012,9.406617]}},{"type":"Feature","properties":{"time and day":"22:00.0","timestamp":"02:22:00"},"geometry":{"type":"Point","coordinates":[-82.378539,9.405846]}},{"type":"Feature","properties":{"time and day":"23:00.0","timestamp":"02:23:00"},"geometry":{"type":"Point","coordinates":[-82.383233,9.405405]}},{"type":"Feature","properties":{"time and day":"24:00.0","timestamp":"02:24:00"},"geometry":{"type":"Point","coordinates":[-82.387886,9.404255]}},{"type":"Feature","properties":{"time and day":"25:00.0","timestamp":"02:25:00"},"geometry":{"type":"Point","coordinates":[-82.392965,9.403379]}},{"type":"Feature","properties":{"time and day":"25:00.0","timestamp":"02:25:00"},"geometry":{"type":"Point","coordinates":[-82.392965,9.403379]}},{"type":"Feature","properties":{"time and day":"26:00.0","timestamp":"02:26:00"},"geometry":{"type":"Point","coordinates":[-82.39818,9.402984]}},{"type":"Feature","properties":{"time and day":"27:00.0","timestamp":"02:27:00"},"geometry":{"type":"Point","coordinates":[-82.403517,9.402849]}},{"type":"Feature","properties":{"time and day":"28:00.0","timestamp":"02:28:00"},"geometry":{"type":"Point","coordinates":[-82.408334,9.40293]}},{"type":"Feature","properties":{"time and day":"29:00.0","timestamp":"02:29:00"},"geometry":{"type":"Point","coordinates":[-82.41324,9.403248]}},{"type":"Feature","properties":{"time and day":"30:00.0","timestamp":"02:30:00"},"geometry":{"type":"Point","coordinates":[-82.418243,9.403311]}},{"type":"Feature","properties":{"time and day":"31:00.0","timestamp":"02:31:00"},"geometry":{"type":"Point","coordinates":[-82.42319,9.403774]}},{"type":"Feature","properties":{"time and day":"32:00.0","timestamp":"02:32:00"},"geometry":{"type":"Point","coordinates":[-82.428089,9.404379]}},{"type":"Feature","properties":{"time and day":"33:00.0","timestamp":"02:33:00"},"geometry":{"type":"Point","coordinates":[-82.43261,9.404675]}},{"type":"Feature","properties":{"time and day":"34:00.0","timestamp":"02:34:00"},"geometry":{"type":"Point","coordinates":[-82.437759,9.404742]}},{"type":"Feature","properties":{"time and day":"35:00.0","timestamp":"02:35:00"},"geometry":{"type":"Point","coordinates":[-82.442771,9.405513]}},{"type":"Feature","properties":{"time and day":"36:00.0","timestamp":"02:36:00"},"geometry":{"type":"Point","coordinates":[-82.447525,9.406521]}},{"type":"Feature","properties":{"time and day":"37:00.0","timestamp":"02:37:00"},"geometry":{"type":"Point","coordinates":[-82.452105,9.407259]}},{"type":"Feature","properties":{"time and day":"38:00.0","timestamp":"02:38:00"},"geometry":{"type":"Point","coordinates":[-82.457107,9.407353]}},{"type":"Feature","properties":{"time and day":"39:00.0","timestamp":"02:39:00"},"geometry":{"type":"Point","coordinates":[-82.462625,9.407101]}},{"type":"Feature","properties":{"time and day":"40:00.0","timestamp":"02:40:00"},"geometry":{"type":"Point","coordinates":[-82.466399,9.408037]}},{"type":"Feature","properties":{"time and day":"41:00.0","timestamp":"02:41:00"},"geometry":{"type":"Point","coordinates":[-82.466382,9.408166]}},{"type":"Feature","properties":{"time and day":"42:00.0","timestamp":"02:42:00"},"geometry":{"type":"Point","coordinates":[-82.467656,9.40835]}},{"type":"Feature","properties":{"time and day":"43:00.0","timestamp":"02:43:00"},"geometry":{"type":"Point","coordinates":[-82.472656,9.410639]}},{"type":"Feature","properties":{"time and day":"44:00.0","timestamp":"02:44:00"},"geometry":{"type":"Point","coordinates":[-82.476851,9.413015]}},{"type":"Feature","properties":{"time and day":"45:00.0","timestamp":"02:45:00"},"geometry":{"type":"Point","coordinates":[-82.481016,9.415651]}},{"type":"Feature","properties":{"time and day":"46:00.0","timestamp":"02:46:00"},"geometry":{"type":"Point","coordinates":[-82.485698,9.417798]}},{"type":"Feature","properties":{"time and day":"47:00.0","timestamp":"02:47:00"},"geometry":{"type":"Point","coordinates":[-82.489708,9.419756]}},{"type":"Feature","properties":{"time and day":"48:00.0","timestamp":"02:48:00"},"geometry":{"type":"Point","coordinates":[-82.49034,9.420105]}},{"type":"Feature","properties":{"time and day":"49:00.0","timestamp":"02:49:00"},"geometry":{"type":"Point","coordinates":[-82.490203,9.419913]}},{"type":"Feature","properties":{"time and day":"50:00.0","timestamp":"02:50:00"},"geometry":{"type":"Point","coordinates":[-82.490181,9.419888]}},{"type":"Feature","properties":{"time and day":"51:00.0","timestamp":"02:51:00"},"geometry":{"type":"Point","coordinates":[-82.490443,9.42114]}},{"type":"Feature","properties":{"time and day":"52:00.0","timestamp":"02:52:00"},"geometry":{"type":"Point","coordinates":[-82.490221,9.420347]}},{"type":"Feature","properties":{"time and day":"53:00.0","timestamp":"02:53:00"},"geometry":{"type":"Point","coordinates":[-82.489999,9.419752]}},{"type":"Feature","properties":{"time and day":"54:00.0","timestamp":"02:54:00"},"geometry":{"type":"Point","coordinates":[-82.490372,9.421212]}},{"type":"Feature","properties":{"time and day":"55:00.0","timestamp":"02:55:00"},"geometry":{"type":"Point","coordinates":[-82.490422,9.42118]}},{"type":"Feature","properties":{"time and day":"56:00.0","timestamp":"02:56:00"},"geometry":{"type":"Point","coordinates":[-82.490442,9.421129]}},{"type":"Feature","properties":{"time and day":"57:00.0","timestamp":"02:57:00"},"geometry":{"type":"Point","coordinates":[-82.490364,9.421234]}},{"type":"Feature","properties":{"time and day":"58:00.0","timestamp":"02:58:00"},"geometry":{"type":"Point","coordinates":[-82.490323,9.42117]}},{"type":"Feature","properties":{"time and day":"59:00.0","timestamp":"02:59:00"},"geometry":{"type":"Point","coordinates":[-82.490254,9.421223]}},{"type":"Feature","properties":{"time and day":"00:00.0","timestamp":"03:00:00"},"geometry":{"type":"Point","coordinates":[-82.490309,9.421229]}},{"type":"Feature","properties":{"time and day":"01:00.0","timestamp":"03:01:00"},"geometry":{"type":"Point","coordinates":[-82.490313,9.421255]}},{"type":"Feature","properties":{"time and day":"02:00.0","timestamp":"03:02:00"},"geometry":{"type":"Point","coordinates":[-82.490362,9.421306]}},{"type":"Feature","properties":{"time and day":"03:00.0","timestamp":"03:03:00"},"geometry":{"type":"Point","coordinates":[-82.490323,9.421304]}},{"type":"Feature","properties":{"time and day":"04:00.0","timestamp":"03:04:00"},"geometry":{"type":"Point","coordinates":[-82.490357,9.421262]}},{"type":"Feature","properties":{"time and day":"05:00.0","timestamp":"03:05:00"},"geometry":{"type":"Point","coordinates":[-82.490344,9.421201]}},{"type":"Feature","properties":{"time and day":"06:00.0","timestamp":"03:06:00"},"geometry":{"type":"Point","coordinates":[-82.490252,9.421201]}},{"type":"Feature","properties":{"time and day":"07:00.0","timestamp":"03:07:00"},"geometry":{"type":"Point","coordinates":[-82.490315,9.42129]}},{"type":"Feature","properties":{"time and day":"08:00.0","timestamp":"03:08:00"},"geometry":{"type":"Point","coordinates":[-82.490355,9.421205]}},{"type":"Feature","properties":{"time and day":"09:00.0","timestamp":"03:09:00"},"geometry":{"type":"Point","coordinates":[-82.490388,9.421288]}},{"type":"Feature","properties":{"time and day":"10:00.0","timestamp":"03:10:00"},"geometry":{"type":"Point","coordinates":[-82.490343,9.42135]}},{"type":"Feature","properties":{"time and day":"11:00.0","timestamp":"03:11:00"},"geometry":{"type":"Point","coordinates":[-82.490384,9.421248]}},{"type":"Feature","properties":{"time and day":"12:00.0","timestamp":"03:12:00"},"geometry":{"type":"Point","coordinates":[-82.490546,9.421252]}},{"type":"Feature","properties":{"time and day":"13:00.0","timestamp":"03:13:00"},"geometry":{"type":"Point","coordinates":[-82.490422,9.421231]}},{"type":"Feature","properties":{"time and day":"14:00.0","timestamp":"03:14:00"},"geometry":{"type":"Point","coordinates":[-82.490451,9.42132]}},{"type":"Feature","properties":{"time and day":"15:00.0","timestamp":"03:15:00"},"geometry":{"type":"Point","coordinates":[-82.49039,9.421323]}},{"type":"Feature","properties":{"time and day":"16:00.0","timestamp":"03:16:00"},"geometry":{"type":"Point","coordinates":[-82.490473,9.421264]}},{"type":"Feature","properties":{"time and day":"17:00.0","timestamp":"03:17:00"},"geometry":{"type":"Point","coordinates":[-82.490422,9.421269]}},{"type":"Feature","properties":{"time and day":"18:00.0","timestamp":"03:18:00"},"geometry":{"type":"Point","coordinates":[-82.4904,9.421257]}},{"type":"Feature","properties":{"time and day":"19:00.0","timestamp":"03:19:00"},"geometry":{"type":"Point","coordinates":[-82.490497,9.421221]}},{"type":"Feature","properties":{"time and day":"20:00.0","timestamp":"03:20:00"},"geometry":{"type":"Point","coordinates":[-82.490285,9.419879]}},{"type":"Feature","properties":{"time and day":"21:00.0","timestamp":"03:21:00"},"geometry":{"type":"Point","coordinates":[-82.490268,9.420023]}},{"type":"Feature","properties":{"time and day":"22:00.0","timestamp":"03:22:00"},"geometry":{"type":"Point","coordinates":[-82.490046,9.420072]}},{"type":"Feature","properties":{"time and day":"23:00.0","timestamp":"03:23:00"},"geometry":{"type":"Point","coordinates":[-82.490437,9.420454]}},{"type":"Feature","properties":{"time and day":"24:00.0","timestamp":"03:24:00"},"geometry":{"type":"Point","coordinates":[-82.490529,9.420336]}},{"type":"Feature","properties":{"time and day":"25:00.0","timestamp":"03:25:00"},"geometry":{"type":"Point","coordinates":[-82.490462,9.420247]}},{"type":"Feature","properties":{"time and day":"26:00.0","timestamp":"03:26:00"},"geometry":{"type":"Point","coordinates":[-82.488895,9.419474]}},{"type":"Feature","properties":{"time and day":"27:00.0","timestamp":"03:27:00"},"geometry":{"type":"Point","coordinates":[-82.484528,9.416293]}},{"type":"Feature","properties":{"time and day":"28:00.0","timestamp":"03:28:00"},"geometry":{"type":"Point","coordinates":[-82.47896,9.414791]}},{"type":"Feature","properties":{"time and day":"29:00.0","timestamp":"03:29:00"},"geometry":{"type":"Point","coordinates":[-82.474348,9.411326]}},{"type":"Feature","properties":{"time and day":"30:00.0","timestamp":"03:30:00"},"geometry":{"type":"Point","coordinates":[-82.469612,9.408791]}},{"type":"Feature","properties":{"time and day":"31:00.0","timestamp":"03:31:00"},"geometry":{"type":"Point","coordinates":[-82.466722,9.407789]}},{"type":"Feature","properties":{"time and day":"32:00.0","timestamp":"03:32:00"},"geometry":{"type":"Point","coordinates":[-82.466658,9.408143]}},{"type":"Feature","properties":{"time and day":"33:00.0","timestamp":"03:33:00"},"geometry":{"type":"Point","coordinates":[-82.466623,9.40807]}},{"type":"Feature","properties":{"time and day":"34:00.0","timestamp":"03:34:00"},"geometry":{"type":"Point","coordinates":[-82.466677,9.408106]}},{"type":"Feature","properties":{"time and day":"35:00.0","timestamp":"03:35:00"},"geometry":{"type":"Point","coordinates":[-82.466704,9.407928]}},{"type":"Feature","properties":{"time and day":"36:00.0","timestamp":"03:36:00"},"geometry":{"type":"Point","coordinates":[-82.468885,9.408774]}},{"type":"Feature","properties":{"time and day":"37:00.0","timestamp":"03:37:00"},"geometry":{"type":"Point","coordinates":[-82.473784,9.410418]}},{"type":"Feature","properties":{"time and day":"38:00.0","timestamp":"03:38:00"},"geometry":{"type":"Point","coordinates":[-82.477545,9.413981]}},{"type":"Feature","properties":{"time and day":"39:00.0","timestamp":"03:39:00"},"geometry":{"type":"Point","coordinates":[-82.481965,9.415704]}},{"type":"Feature","properties":{"time and day":"40:00.0","timestamp":"03:40:00"},"geometry":{"type":"Point","coordinates":[-82.486416,9.418017]}},{"type":"Feature","properties":{"time and day":"41:00.0","timestamp":"03:41:00"},"geometry":{"type":"Point","coordinates":[-82.490443,9.420251]}},{"type":"Feature","properties":{"time and day":"42:00.0","timestamp":"03:42:00"},"geometry":{"type":"Point","coordinates":[-82.490366,9.420335]}},{"type":"Feature","properties":{"time and day":"43:00.0","timestamp":"03:43:00"},"geometry":{"type":"Point","coordinates":[-82.49043,9.420357]}},{"type":"Feature","properties":{"time and day":"44:00.0","timestamp":"03:44:00"},"geometry":{"type":"Point","coordinates":[-82.490272,9.421095]}},{"type":"Feature","properties":{"time and day":"45:00.0","timestamp":"03:45:00"},"geometry":{"type":"Point","coordinates":[-82.490451,9.421124]}},{"type":"Feature","properties":{"time and day":"46:00.0","timestamp":"03:46:00"},"geometry":{"type":"Point","coordinates":[-82.490411,9.421188]}},{"type":"Feature","properties":{"time and day":"47:00.0","timestamp":"03:47:00"},"geometry":{"type":"Point","coordinates":[-82.490389,9.421163]}},{"type":"Feature","properties":{"time and day":"48:00.0","timestamp":"03:48:00"},"geometry":{"type":"Point","coordinates":[-82.490354,9.421234]}},{"type":"Feature","properties":{"time and day":"49:00.0","timestamp":"03:49:00"},"geometry":{"type":"Point","coordinates":[-82.490406,9.421207]}},{"type":"Feature","properties":{"time and day":"50:00.0","timestamp":"03:50:00"},"geometry":{"type":"Point","coordinates":[-82.490417,9.421273]}},{"type":"Feature","properties":{"time and day":"51:00.0","timestamp":"03:51:00"},"geometry":{"type":"Point","coordinates":[-82.490291,9.421258]}},{"type":"Feature","properties":{"time and day":"52:00.0","timestamp":"03:52:00"},"geometry":{"type":"Point","coordinates":[-82.490269,9.421205]}},{"type":"Feature","properties":{"time and day":"53:00.0","timestamp":"03:53:00"},"geometry":{"type":"Point","coordinates":[-82.490288,9.421243]}},{"type":"Feature","properties":{"time and day":"54:00.0","timestamp":"03:54:00"},"geometry":{"type":"Point","coordinates":[-82.49032,9.42118]}},{"type":"Feature","properties":{"time and day":"55:00.0","timestamp":"03:55:00"},"geometry":{"type":"Point","coordinates":[-82.490405,9.421196]}},{"type":"Feature","properties":{"time and day":"56:00.0","timestamp":"03:56:00"},"geometry":{"type":"Point","coordinates":[-82.490318,9.421281]}},{"type":"Feature","properties":{"time and day":"57:00.0","timestamp":"03:57:00"},"geometry":{"type":"Point","coordinates":[-82.490453,9.421189]}},{"type":"Feature","properties":{"time and day":"58:00.0","timestamp":"03:58:00"},"geometry":{"type":"Point","coordinates":[-82.4903,9.421209]}},{"type":"Feature","properties":{"time and day":"59:00.0","timestamp":"03:59:00"},"geometry":{"type":"Point","coordinates":[-82.490403,9.421247]}},{"type":"Feature","properties":{"time and day":"00:00.0","timestamp":"04:00:00"},"geometry":{"type":"Point","coordinates":[-82.490236,9.421227]}},{"type":"Feature","properties":{"time and day":"01:00.0","timestamp":"04:01:00"},"geometry":{"type":"Point","coordinates":[-82.490395,9.421257]}},{"type":"Feature","properties":{"time and day":"02:00.0","timestamp":"04:02:00"},"geometry":{"type":"Point","coordinates":[-82.490378,9.421248]}},{"type":"Feature","properties":{"time and day":"03:00.0","timestamp":"04:03:00"},"geometry":{"type":"Point","coordinates":[-82.490331,9.421256]}},{"type":"Feature","properties":{"time and day":"04:00.0","timestamp":"04:04:00"},"geometry":{"type":"Point","coordinates":[-82.490394,9.421304]}},{"type":"Feature","properties":{"time and day":"05:00.0","timestamp":"04:05:00"},"geometry":{"type":"Point","coordinates":[-82.490369,9.421303]}},{"type":"Feature","properties":{"time and day":"06:00.0","timestamp":"04:06:00"},"geometry":{"type":"Point","coordinates":[-82.490314,9.421264]}},{"type":"Feature","properties":{"time and day":"07:00.0","timestamp":"04:07:00"},"geometry":{"type":"Point","coordinates":[-82.490288,9.421324]}},{"type":"Feature","properties":{"time and day":"08:00.0","timestamp":"04:08:00"},"geometry":{"type":"Point","coordinates":[-82.49036,9.421302]}},{"type":"Feature","properties":{"time and day":"09:00.0","timestamp":"04:09:00"},"geometry":{"type":"Point","coordinates":[-82.490497,9.42128]}},{"type":"Feature","properties":{"time and day":"10:00.0","timestamp":"04:10:00"},"geometry":{"type":"Point","coordinates":[-82.490414,9.421323]}},{"type":"Feature","properties":{"time and day":"11:00.0","timestamp":"04:11:00"},"geometry":{"type":"Point","coordinates":[-82.490384,9.421268]}},{"type":"Feature","properties":{"time and day":"12:00.0","timestamp":"04:12:00"},"geometry":{"type":"Point","coordinates":[-82.490367,9.421199]}},{"type":"Feature","properties":{"time and day":"13:00.0","timestamp":"04:13:00"},"geometry":{"type":"Point","coordinates":[-82.490358,9.421299]}},{"type":"Feature","properties":{"time and day":"14:00.0","timestamp":"04:14:00"},"geometry":{"type":"Point","coordinates":[-82.490532,9.421232]}},{"type":"Feature","properties":{"time and day":"15:00.0","timestamp":"04:15:00"},"geometry":{"type":"Point","coordinates":[-82.490348,9.421241]}},{"type":"Feature","properties":{"time and day":"16:00.0","timestamp":"04:16:00"},"geometry":{"type":"Point","coordinates":[-82.490412,9.42123]}},{"type":"Feature","properties":{"time and day":"17:00.0","timestamp":"04:17:00"},"geometry":{"type":"Point","coordinates":[-82.490484,9.42125]}},{"type":"Feature","properties":{"time and day":"18:00.0","timestamp":"04:18:00"},"geometry":{"type":"Point","coordinates":[-82.490518,9.421266]}},{"type":"Feature","properties":{"time and day":"19:00.0","timestamp":"04:19:00"},"geometry":{"type":"Point","coordinates":[-82.490514,9.421315]}},{"type":"Feature","properties":{"time and day":"20:00.0","timestamp":"04:20:00"},"geometry":{"type":"Point","coordinates":[-82.490386,9.421298]}},{"type":"Feature","properties":{"time and day":"21:00.0","timestamp":"04:21:00"},"geometry":{"type":"Point","coordinates":[-82.490368,9.421269]}},{"type":"Feature","properties":{"time and day":"22:00.0","timestamp":"04:22:00"},"geometry":{"type":"Point","coordinates":[-82.490409,9.421266]}},{"type":"Feature","properties":{"time and day":"23:00.0","timestamp":"04:23:00"},"geometry":{"type":"Point","coordinates":[-82.490449,9.421291]}},{"type":"Feature","properties":{"time and day":"24:00.0","timestamp":"04:24:00"},"geometry":{"type":"Point","coordinates":[-82.490355,9.421297]}},{"type":"Feature","properties":{"time and day":"25:00.0","timestamp":"04:25:00"},"geometry":{"type":"Point","coordinates":[-82.490429,9.421291]}},{"type":"Feature","properties":{"time and day":"26:00.0","timestamp":"04:26:00"},"geometry":{"type":"Point","coordinates":[-82.490544,9.421378]}},{"type":"Feature","properties":{"time and day":"27:00.0","timestamp":"04:27:00"},"geometry":{"type":"Point","coordinates":[-82.490454,9.421228]}},{"type":"Feature","properties":{"time and day":"28:00.0","timestamp":"04:28:00"},"geometry":{"type":"Point","coordinates":[-82.49036,9.421133]}},{"type":"Feature","properties":{"time and day":"29:00.0","timestamp":"04:29:00"},"geometry":{"type":"Point","coordinates":[-82.490305,9.42127]}},{"type":"Feature","properties":{"time and day":"30:00.0","timestamp":"04:30:00"},"geometry":{"type":"Point","coordinates":[-82.490578,9.421198]}},{"type":"Feature","properties":{"time and day":"31:00.0","timestamp":"04:31:00"},"geometry":{"type":"Point","coordinates":[-82.490407,9.421262]}},{"type":"Feature","properties":{"time and day":"32:00.0","timestamp":"04:32:00"},"geometry":{"type":"Point","coordinates":[-82.490369,9.421257]}},{"type":"Feature","properties":{"time and day":"33:00.0","timestamp":"04:33:00"},"geometry":{"type":"Point","coordinates":[-82.490313,9.421301]}},{"type":"Feature","properties":{"time and day":"34:00.0","timestamp":"04:34:00"},"geometry":{"type":"Point","coordinates":[-82.490266,9.421228]}},{"type":"Feature","properties":{"time and day":"35:00.0","timestamp":"04:35:00"},"geometry":{"type":"Point","coordinates":[-82.490323,9.419605]}},{"type":"Feature","properties":{"time and day":"36:00.0","timestamp":"04:36:00"},"geometry":{"type":"Point","coordinates":[-82.490238,9.420544]}},{"type":"Feature","properties":{"time and day":"37:00.0","timestamp":"04:37:00"},"geometry":{"type":"Point","coordinates":[-82.490009,9.42013]}},{"type":"Feature","properties":{"time and day":"38:00.0","timestamp":"04:38:00"},"geometry":{"type":"Point","coordinates":[-82.488181,9.41908]}},{"type":"Feature","properties":{"time and day":"39:00.0","timestamp":"04:39:00"},"geometry":{"type":"Point","coordinates":[-82.482977,9.417441]}},{"type":"Feature","properties":{"time and day":"40:00.0","timestamp":"04:40:00"},"geometry":{"type":"Point","coordinates":[-82.477448,9.415796]}},{"type":"Feature","properties":{"time and day":"41:00.0","timestamp":"04:41:00"},"geometry":{"type":"Point","coordinates":[-82.472046,9.413609]}},{"type":"Feature","properties":{"time and day":"42:00.0","timestamp":"04:42:00"},"geometry":{"type":"Point","coordinates":[-82.466973,9.412173]}},{"type":"Feature","properties":{"time and day":"43:00.0","timestamp":"04:43:00"},"geometry":{"type":"Point","coordinates":[-82.462022,9.410857]}},{"type":"Feature","properties":{"time and day":"44:00.0","timestamp":"04:44:00"},"geometry":{"type":"Point","coordinates":[-82.45701,9.409581]}},{"type":"Feature","properties":{"time and day":"45:00.0","timestamp":"04:45:00"},"geometry":{"type":"Point","coordinates":[-82.452069,9.407899]}},{"type":"Feature","properties":{"time and day":"46:00.0","timestamp":"04:46:00"},"geometry":{"type":"Point","coordinates":[-82.446666,9.407039]}},{"type":"Feature","properties":{"time and day":"47:00.0","timestamp":"04:47:00"},"geometry":{"type":"Point","coordinates":[-82.441096,9.405962]}},{"type":"Feature","properties":{"time and day":"48:00.0","timestamp":"04:48:00"},"geometry":{"type":"Point","coordinates":[-82.435621,9.404787]}},{"type":"Feature","properties":{"time and day":"49:00.0","timestamp":"04:49:00"},"geometry":{"type":"Point","coordinates":[-82.430434,9.403515]}},{"type":"Feature","properties":{"time and day":"50:00.0","timestamp":"04:50:00"},"geometry":{"type":"Point","coordinates":[-82.425183,9.401958]}},{"type":"Feature","properties":{"time and day":"51:00.0","timestamp":"04:51:00"},"geometry":{"type":"Point","coordinates":[-82.420102,9.400613]}},{"type":"Feature","properties":{"time and day":"52:00.0","timestamp":"04:52:00"},"geometry":{"type":"Point","coordinates":[-82.415205,9.399506]}},{"type":"Feature","properties":{"time and day":"53:00.0","timestamp":"04:53:00"},"geometry":{"type":"Point","coordinates":[-82.410361,9.399205]}},{"type":"Feature","properties":{"time and day":"54:00.0","timestamp":"04:54:00"},"geometry":{"type":"Point","coordinates":[-82.405458,9.398622]}},{"type":"Feature","properties":{"time and day":"55:00.0","timestamp":"04:55:00"},"geometry":{"type":"Point","coordinates":[-82.400458,9.398034]}},{"type":"Feature","properties":{"time and day":"56:00.0","timestamp":"04:56:00"},"geometry":{"type":"Point","coordinates":[-82.39555,9.397718]}},{"type":"Feature","properties":{"time and day":"57:00.0","timestamp":"04:57:00"},"geometry":{"type":"Point","coordinates":[-82.390507,9.39766]}},{"type":"Feature","properties":{"time and day":"58:00.0","timestamp":"04:58:00"},"geometry":{"type":"Point","coordinates":[-82.385704,9.397502]}},{"type":"Feature","properties":{"time and day":"59:00.0","timestamp":"04:59:00"},"geometry":{"type":"Point","coordinates":[-82.380462,9.39759]}},{"type":"Feature","properties":{"time and day":"00:00.0","timestamp":"05:00:00"},"geometry":{"type":"Point","coordinates":[-82.375287,9.397707]}},{"type":"Feature","properties":{"time and day":"01:00.0","timestamp":"05:01:00"},"geometry":{"type":"Point","coordinates":[-82.371223,9.397486]}},{"type":"Feature","properties":{"time and day":"02:00.0","timestamp":"05:02:00"},"geometry":{"type":"Point","coordinates":[-82.366027,9.397742]}},{"type":"Feature","properties":{"time and day":"03:00.0","timestamp":"05:03:00"},"geometry":{"type":"Point","coordinates":[-82.361095,9.398263]}},{"type":"Feature","properties":{"time and day":"04:00.0","timestamp":"05:04:00"},"geometry":{"type":"Point","coordinates":[-82.355655,9.397776]}},{"type":"Feature","properties":{"time and day":"05:00.0","timestamp":"05:05:00"},"geometry":{"type":"Point","coordinates":[-82.349613,9.397764]}},{"type":"Feature","properties":{"time and day":"06:00.0","timestamp":"05:06:00"},"geometry":{"type":"Point","coordinates":[-82.343432,9.398201]}},{"type":"Feature","properties":{"time and day":"07:00.0","timestamp":"05:07:00"},"geometry":{"type":"Point","coordinates":[-82.337499,9.40003]}},{"type":"Feature","properties":{"time and day":"08:00.0","timestamp":"05:08:00"},"geometry":{"type":"Point","coordinates":[-82.331343,9.40151]}},{"type":"Feature","properties":{"time and day":"09:00.0","timestamp":"05:09:00"},"geometry":{"type":"Point","coordinates":[-82.325316,9.403059]}},{"type":"Feature","properties":{"time and day":"10:00.0","timestamp":"05:10:00"},"geometry":{"type":"Point","coordinates":[-82.319703,9.402651]}},{"type":"Feature","properties":{"time and day":"11:00.0","timestamp":"05:11:00"},"geometry":{"type":"Point","coordinates":[-82.314171,9.4028]}},{"type":"Feature","properties":{"time and day":"12:00.0","timestamp":"05:12:00"},"geometry":{"type":"Point","coordinates":[-82.309467,9.401925]}},{"type":"Feature","properties":{"time and day":"13:00.0","timestamp":"05:13:00"},"geometry":{"type":"Point","coordinates":[-82.305582,9.400448]}},{"type":"Feature","properties":{"time and day":"14:00.0","timestamp":"05:14:00"},"geometry":{"type":"Point","coordinates":[-82.301269,9.399148]}},{"type":"Feature","properties":{"time and day":"15:00.0","timestamp":"05:15:00"},"geometry":{"type":"Point","coordinates":[-82.296839,9.397306]}},{"type":"Feature","properties":{"time and day":"16:00.0","timestamp":"05:16:00"},"geometry":{"type":"Point","coordinates":[-82.293185,9.39472]}},{"type":"Feature","properties":{"time and day":"17:00.0","timestamp":"05:17:00"},"geometry":{"type":"Point","coordinates":[-82.290129,9.39293]}},{"type":"Feature","properties":{"time and day":"18:00.0","timestamp":"05:18:00"},"geometry":{"type":"Point","coordinates":[-82.28637,9.391869]}},{"type":"Feature","properties":{"time and day":"19:00.0","timestamp":"05:19:00"},"geometry":{"type":"Point","coordinates":[-82.283938,9.389701]}},{"type":"Feature","properties":{"time and day":"20:00.0","timestamp":"05:20:00"},"geometry":{"type":"Point","coordinates":[-82.280343,9.388451]}},{"type":"Feature","properties":{"time and day":"21:00.0","timestamp":"05:21:00"},"geometry":{"type":"Point","coordinates":[-82.277376,9.389186]}},{"type":"Feature","properties":{"time and day":"22:00.0","timestamp":"05:22:00"},"geometry":{"type":"Point","coordinates":[-82.27691,9.389491]}},{"type":"Feature","properties":{"time and day":"23:00.0","timestamp":"05:23:00"},"geometry":{"type":"Point","coordinates":[-82.275209,9.390416]}},{"type":"Feature","properties":{"time and day":"24:00.0","timestamp":"05:24:00"},"geometry":{"type":"Point","coordinates":[-82.273135,9.393838]}},{"type":"Feature","properties":{"time and day":"2016-03-04 2:07","timestamp":"02:07:45"},"geometry":{"type":"Point","coordinates":[-82.311412,9.403426]},"id":199},{"type":"Feature","properties":{"time and day":"08:00.0","timestamp":"02:08:00"},"geometry":{"type":"Point","coordinates":[-82.312515,9.404055]},"id":200},{"type":"Feature","properties":{"time and day":"09:00.0","timestamp":"02:09:00"},"geometry":{"type":"Point","coordinates":[-82.317076,9.404753]}},{"type":"Feature","properties":{"time and day":"10:00.0","timestamp":"02:10:00"},"geometry":{"type":"Point","coordinates":[-82.322069,9.405675]}},{"type":"Feature","properties":{"time and day":"11:00.0","timestamp":"02:11:00"},"geometry":{"type":"Point","coordinates":[-82.327072,9.406463]}},{"type":"Feature","properties":{"time and day":"12:00.0","timestamp":"02:12:00"},"geometry":{"type":"Point","coordinates":[-82.332296,9.40651]}},{"type":"Feature","properties":{"time and day":"13:00.0","timestamp":"02:13:00"},"geometry":{"type":"Point","coordinates":[-82.337348,9.407159]}},{"type":"Feature","properties":{"time and day":"14:00.0","timestamp":"02:14:00"},"geometry":{"type":"Point","coordinates":[-82.341828,9.407698]}},{"type":"Feature","properties":{"time and day":"15:00.0","timestamp":"02:15:00"},"geometry":{"type":"Point","coordinates":[-82.346183,9.407951]}},{"type":"Feature","properties":{"time and day":"16:00.0","timestamp":"02:16:00"},"geometry":{"type":"Point","coordinates":[-82.350408,9.407705]}},{"type":"Feature","properties":{"time and day":"17:00.0","timestamp":"02:17:00"},"geometry":{"type":"Point","coordinates":[-82.354763,9.406668]}},{"type":"Feature","properties":{"time and day":"18:00.0","timestamp":"02:18:00"},"geometry":{"type":"Point","coordinates":[-82.359422,9.4064]}},{"type":"Feature","properties":{"time and day":"19:00.0","timestamp":"02:19:00"},"geometry":{"type":"Point","coordinates":[-82.364387,9.406862]}},{"type":"Feature","properties":{"time and day":"20:00.0","timestamp":"02:20:00"},"geometry":{"type":"Point","coordinates":[-82.369237,9.406242]}},{"type":"Feature","properties":{"time and day":"21:00.0","timestamp":"02:21:00"},"geometry":{"type":"Point","coordinates":[-82.374012,9.406617]}},{"type":"Feature","properties":{"time and day":"22:00.0","timestamp":"02:22:00"},"geometry":{"type":"Point","coordinates":[-82.378539,9.405846]}},{"type":"Feature","properties":{"time and day":"23:00.0","timestamp":"02:23:00"},"geometry":{"type":"Point","coordinates":[-82.383233,9.405405]}},{"type":"Feature","properties":{"time and day":"24:00.0","timestamp":"02:24:00"},"geometry":{"type":"Point","coordinates":[-82.387886,9.404255]}},{"type":"Feature","properties":{"time and day":"25:00.0","timestamp":"02:25:00"},"geometry":{"type":"Point","coordinates":[-82.392965,9.403379]}},{"type":"Feature","properties":{"time and day":"25:00.0","timestamp":"02:25:00"},"geometry":{"type":"Point","coordinates":[-82.392965,9.403379]}},{"type":"Feature","properties":{"time and day":"26:00.0","timestamp":"02:26:00"},"geometry":{"type":"Point","coordinates":[-82.39818,9.402984]}},{"type":"Feature","properties":{"time and day":"27:00.0","timestamp":"02:27:00"},"geometry":{"type":"Point","coordinates":[-82.403517,9.402849]}},{"type":"Feature","properties":{"time and day":"28:00.0","timestamp":"02:28:00"},"geometry":{"type":"Point","coordinates":[-82.408334,9.40293]}},{"type":"Feature","properties":{"time and day":"29:00.0","timestamp":"02:29:00"},"geometry":{"type":"Point","coordinates":[-82.41324,9.403248]}},{"type":"Feature","properties":{"time and day":"30:00.0","timestamp":"02:30:00"},"geometry":{"type":"Point","coordinates":[-82.418243,9.403311]}},{"type":"Feature","properties":{"time and day":"31:00.0","timestamp":"02:31:00"},"geometry":{"type":"Point","coordinates":[-82.42319,9.403774]}},{"type":"Feature","properties":{"time and day":"32:00.0","timestamp":"02:32:00"},"geometry":{"type":"Point","coordinates":[-82.428089,9.404379]}},{"type":"Feature","properties":{"time and day":"33:00.0","timestamp":"02:33:00"},"geometry":{"type":"Point","coordinates":[-82.43261,9.404675]}},{"type":"Feature","properties":{"time and day":"34:00.0","timestamp":"02:34:00"},"geometry":{"type":"Point","coordinates":[-82.437759,9.404742]}},{"type":"Feature","properties":{"time and day":"35:00.0","timestamp":"02:35:00"},"geometry":{"type":"Point","coordinates":[-82.442771,9.405513]}},{"type":"Feature","properties":{"time and day":"36:00.0","timestamp":"02:36:00"},"geometry":{"type":"Point","coordinates":[-82.447525,9.406521]}},{"type":"Feature","properties":{"time and day":"37:00.0","timestamp":"02:37:00"},"geometry":{"type":"Point","coordinates":[-82.452105,9.407259]}},{"type":"Feature","properties":{"time and day":"38:00.0","timestamp":"02:38:00"},"geometry":{"type":"Point","coordinates":[-82.457107,9.407353]}},{"type":"Feature","properties":{"time and day":"39:00.0","timestamp":"02:39:00"},"geometry":{"type":"Point","coordinates":[-82.462625,9.407101]}},{"type":"Feature","properties":{"time and day":"40:00.0","timestamp":"02:40:00"},"geometry":{"type":"Point","coordinates":[-82.466399,9.408037]}},{"type":"Feature","properties":{"time and day":"41:00.0","timestamp":"02:41:00"},"geometry":{"type":"Point","coordinates":[-82.466382,9.408166]}},{"type":"Feature","properties":{"time and day":"42:00.0","timestamp":"02:42:00"},"geometry":{"type":"Point","coordinates":[-82.467656,9.40835]}},{"type":"Feature","properties":{"time and day":"43:00.0","timestamp":"02:43:00"},"geometry":{"type":"Point","coordinates":[-82.472656,9.410639]}},{"type":"Feature","properties":{"time and day":"44:00.0","timestamp":"02:44:00"},"geometry":{"type":"Point","coordinates":[-82.476851,9.413015]}},{"type":"Feature","properties":{"time and day":"45:00.0","timestamp":"02:45:00"},"geometry":{"type":"Point","coordinates":[-82.481016,9.415651]}},{"type":"Feature","properties":{"time and day":"46:00.0","timestamp":"02:46:00"},"geometry":{"type":"Point","coordinates":[-82.485698,9.417798]}},{"type":"Feature","properties":{"time and day":"47:00.0","timestamp":"02:47:00"},"geometry":{"type":"Point","coordinates":[-82.489708,9.419756]}},{"type":"Feature","properties":{"time and day":"48:00.0","timestamp":"02:48:00"},"geometry":{"type":"Point","coordinates":[-82.49034,9.420105]}},{"type":"Feature","properties":{"time and day":"49:00.0","timestamp":"02:49:00"},"geometry":{"type":"Point","coordinates":[-82.490203,9.419913]}},{"type":"Feature","properties":{"time and day":"50:00.0","timestamp":"02:50:00"},"geometry":{"type":"Point","coordinates":[-82.490181,9.419888]}},{"type":"Feature","properties":{"time and day":"51:00.0","timestamp":"02:51:00"},"geometry":{"type":"Point","coordinates":[-82.490443,9.42114]}},{"type":"Feature","properties":{"time and day":"52:00.0","timestamp":"02:52:00"},"geometry":{"type":"Point","coordinates":[-82.490221,9.420347]}},{"type":"Feature","properties":{"time and day":"53:00.0","timestamp":"02:53:00"},"geometry":{"type":"Point","coordinates":[-82.489999,9.419752]}},{"type":"Feature","properties":{"time and day":"54:00.0","timestamp":"02:54:00"},"geometry":{"type":"Point","coordinates":[-82.490372,9.421212]}},{"type":"Feature","properties":{"time and day":"55:00.0","timestamp":"02:55:00"},"geometry":{"type":"Point","coordinates":[-82.490422,9.42118]}},{"type":"Feature","properties":{"time and day":"56:00.0","timestamp":"02:56:00"},"geometry":{"type":"Point","coordinates":[-82.490442,9.421129]}},{"type":"Feature","properties":{"time and day":"57:00.0","timestamp":"02:57:00"},"geometry":{"type":"Point","coordinates":[-82.490364,9.421234]}},{"type":"Feature","properties":{"time and day":"58:00.0","timestamp":"02:58:00"},"geometry":{"type":"Point","coordinates":[-82.490323,9.42117]}},{"type":"Feature","properties":{"time and day":"59:00.0","timestamp":"02:59:00"},"geometry":{"type":"Point","coordinates":[-82.490254,9.421223]}},{"type":"Feature","properties":{"time and day":"00:00.0","timestamp":"03:00:00"},"geometry":{"type":"Point","coordinates":[-82.490309,9.421229]}},{"type":"Feature","properties":{"time and day":"01:00.0","timestamp":"03:01:00"},"geometry":{"type":"Point","coordinates":[-82.490313,9.421255]}},{"type":"Feature","properties":{"time and day":"02:00.0","timestamp":"03:02:00"},"geometry":{"type":"Point","coordinates":[-82.490362,9.421306]}},{"type":"Feature","properties":{"time and day":"03:00.0","timestamp":"03:03:00"},"geometry":{"type":"Point","coordinates":[-82.490323,9.421304]}},{"type":"Feature","properties":{"time and day":"04:00.0","timestamp":"03:04:00"},"geometry":{"type":"Point","coordinates":[-82.490357,9.421262]}},{"type":"Feature","properties":{"time and day":"05:00.0","timestamp":"03:05:00"},"geometry":{"type":"Point","coordinates":[-82.490344,9.421201]}},{"type":"Feature","properties":{"time and day":"06:00.0","timestamp":"03:06:00"},"geometry":{"type":"Point","coordinates":[-82.490252,9.421201]}},{"type":"Feature","properties":{"time and day":"07:00.0","timestamp":"03:07:00"},"geometry":{"type":"Point","coordinates":[-82.490315,9.42129]}},{"type":"Feature","properties":{"time and day":"08:00.0","timestamp":"03:08:00"},"geometry":{"type":"Point","coordinates":[-82.490355,9.421205]}},{"type":"Feature","properties":{"time and day":"09:00.0","timestamp":"03:09:00"},"geometry":{"type":"Point","coordinates":[-82.490388,9.421288]}},{"type":"Feature","properties":{"time and day":"10:00.0","timestamp":"03:10:00"},"geometry":{"type":"Point","coordinates":[-82.490343,9.42135]}},{"type":"Feature","properties":{"time and day":"11:00.0","timestamp":"03:11:00"},"geometry":{"type":"Point","coordinates":[-82.490384,9.421248]}},{"type":"Feature","properties":{"time and day":"12:00.0","timestamp":"03:12:00"},"geometry":{"type":"Point","coordinates":[-82.490546,9.421252]}},{"type":"Feature","properties":{"time and day":"13:00.0","timestamp":"03:13:00"},"geometry":{"type":"Point","coordinates":[-82.490422,9.421231]}},{"type":"Feature","properties":{"time and day":"14:00.0","timestamp":"03:14:00"},"geometry":{"type":"Point","coordinates":[-82.490451,9.42132]}},{"type":"Feature","properties":{"time and day":"15:00.0","timestamp":"03:15:00"},"geometry":{"type":"Point","coordinates":[-82.49039,9.421323]}},{"type":"Feature","properties":{"time and day":"16:00.0","timestamp":"03:16:00"},"geometry":{"type":"Point","coordinates":[-82.490473,9.421264]}},{"type":"Feature","properties":{"time and day":"17:00.0","timestamp":"03:17:00"},"geometry":{"type":"Point","coordinates":[-82.490422,9.421269]}},{"type":"Feature","properties":{"time and day":"18:00.0","timestamp":"03:18:00"},"geometry":{"type":"Point","coordinates":[-82.4904,9.421257]}},{"type":"Feature","properties":{"time and day":"19:00.0","timestamp":"03:19:00"},"geometry":{"type":"Point","coordinates":[-82.490497,9.421221]}},{"type":"Feature","properties":{"time and day":"20:00.0","timestamp":"03:20:00"},"geometry":{"type":"Point","coordinates":[-82.490285,9.419879]}},{"type":"Feature","properties":{"time and day":"21:00.0","timestamp":"03:21:00"},"geometry":{"type":"Point","coordinates":[-82.490268,9.420023]}},{"type":"Feature","properties":{"time and day":"22:00.0","timestamp":"03:22:00"},"geometry":{"type":"Point","coordinates":[-82.490046,9.420072]}},{"type":"Feature","properties":{"time and day":"23:00.0","timestamp":"03:23:00"},"geometry":{"type":"Point","coordinates":[-82.490437,9.420454]}},{"type":"Feature","properties":{"time and day":"24:00.0","timestamp":"03:24:00"},"geometry":{"type":"Point","coordinates":[-82.490529,9.420336]}},{"type":"Feature","properties":{"time and day":"25:00.0","timestamp":"03:25:00"},"geometry":{"type":"Point","coordinates":[-82.490462,9.420247]}},{"type":"Feature","properties":{"time and day":"26:00.0","timestamp":"03:26:00"},"geometry":{"type":"Point","coordinates":[-82.488895,9.419474]}},{"type":"Feature","properties":{"time and day":"27:00.0","timestamp":"03:27:00"},"geometry":{"type":"Point","coordinates":[-82.484528,9.416293]}},{"type":"Feature","properties":{"time and day":"28:00.0","timestamp":"03:28:00"},"geometry":{"type":"Point","coordinates":[-82.47896,9.414791]}},{"type":"Feature","properties":{"time and day":"29:00.0","timestamp":"03:29:00"},"geometry":{"type":"Point","coordinates":[-82.474348,9.411326]}},{"type":"Feature","properties":{"time and day":"30:00.0","timestamp":"03:30:00"},"geometry":{"type":"Point","coordinates":[-82.469612,9.408791]}},{"type":"Feature","properties":{"time and day":"31:00.0","timestamp":"03:31:00"},"geometry":{"type":"Point","coordinates":[-82.466722,9.407789]}},{"type":"Feature","properties":{"time and day":"32:00.0","timestamp":"03:32:00"},"geometry":{"type":"Point","coordinates":[-82.466658,9.408143]}},{"type":"Feature","properties":{"time and day":"33:00.0","timestamp":"03:33:00"},"geometry":{"type":"Point","coordinates":[-82.466623,9.40807]}},{"type":"Feature","properties":{"time and day":"34:00.0","timestamp":"03:34:00"},"geometry":{"type":"Point","coordinates":[-82.466677,9.408106]}},{"type":"Feature","properties":{"time and day":"35:00.0","timestamp":"03:35:00"},"geometry":{"type":"Point","coordinates":[-82.466704,9.407928]}},{"type":"Feature","properties":{"time and day":"36:00.0","timestamp":"03:36:00"},"geometry":{"type":"Point","coordinates":[-82.468885,9.408774]}},{"type":"Feature","properties":{"time and day":"37:00.0","timestamp":"03:37:00"},"geometry":{"type":"Point","coordinates":[-82.473784,9.410418]}},{"type":"Feature","properties":{"time and day":"38:00.0","timestamp":"03:38:00"},"geometry":{"type":"Point","coordinates":[-82.477545,9.413981]}},{"type":"Feature","properties":{"time and day":"39:00.0","timestamp":"03:39:00"},"geometry":{"type":"Point","coordinates":[-82.481965,9.415704]}},{"type":"Feature","properties":{"time and day":"40:00.0","timestamp":"03:40:00"},"geometry":{"type":"Point","coordinates":[-82.486416,9.418017]}},{"type":"Feature","properties":{"time and day":"41:00.0","timestamp":"03:41:00"},"geometry":{"type":"Point","coordinates":[-82.490443,9.420251]}},{"type":"Feature","properties":{"time and day":"42:00.0","timestamp":"03:42:00"},"geometry":{"type":"Point","coordinates":[-82.490366,9.420335]}},{"type":"Feature","properties":{"time and day":"43:00.0","timestamp":"03:43:00"},"geometry":{"type":"Point","coordinates":[-82.49043,9.420357]}},{"type":"Feature","properties":{"time and day":"44:00.0","timestamp":"03:44:00"},"geometry":{"type":"Point","coordinates":[-82.490272,9.421095]}},{"type":"Feature","properties":{"time and day":"45:00.0","timestamp":"03:45:00"},"geometry":{"type":"Point","coordinates":[-82.490451,9.421124]}},{"type":"Feature","properties":{"time and day":"46:00.0","timestamp":"03:46:00"},"geometry":{"type":"Point","coordinates":[-82.490411,9.421188]}},{"type":"Feature","properties":{"time and day":"47:00.0","timestamp":"03:47:00"},"geometry":{"type":"Point","coordinates":[-82.490389,9.421163]}},{"type":"Feature","properties":{"time and day":"48:00.0","timestamp":"03:48:00"},"geometry":{"type":"Point","coordinates":[-82.490354,9.421234]}},{"type":"Feature","properties":{"time and day":"49:00.0","timestamp":"03:49:00"},"geometry":{"type":"Point","coordinates":[-82.490406,9.421207]}},{"type":"Feature","properties":{"time and day":"50:00.0","timestamp":"03:50:00"},"geometry":{"type":"Point","coordinates":[-82.490417,9.421273]}},{"type":"Feature","properties":{"time and day":"51:00.0","timestamp":"03:51:00"},"geometry":{"type":"Point","coordinates":[-82.490291,9.421258]}},{"type":"Feature","properties":{"time and day":"52:00.0","timestamp":"03:52:00"},"geometry":{"type":"Point","coordinates":[-82.490269,9.421205]}},{"type":"Feature","properties":{"time and day":"53:00.0","timestamp":"03:53:00"},"geometry":{"type":"Point","coordinates":[-82.490288,9.421243]}},{"type":"Feature","properties":{"time and day":"54:00.0","timestamp":"03:54:00"},"geometry":{"type":"Point","coordinates":[-82.49032,9.42118]}},{"type":"Feature","properties":{"time and day":"55:00.0","timestamp":"03:55:00"},"geometry":{"type":"Point","coordinates":[-82.490405,9.421196]}},{"type":"Feature","properties":{"time and day":"56:00.0","timestamp":"03:56:00"},"geometry":{"type":"Point","coordinates":[-82.490318,9.421281]}},{"type":"Feature","properties":{"time and day":"57:00.0","timestamp":"03:57:00"},"geometry":{"type":"Point","coordinates":[-82.490453,9.421189]}},{"type":"Feature","properties":{"time and day":"58:00.0","timestamp":"03:58:00"},"geometry":{"type":"Point","coordinates":[-82.4903,9.421209]}},{"type":"Feature","properties":{"time and day":"59:00.0","timestamp":"03:59:00"},"geometry":{"type":"Point","coordinates":[-82.490403,9.421247]}},{"type":"Feature","properties":{"time and day":"00:00.0","timestamp":"04:00:00"},"geometry":{"type":"Point","coordinates":[-82.490236,9.421227]}},{"type":"Feature","properties":{"time and day":"01:00.0","timestamp":"04:01:00"},"geometry":{"type":"Point","coordinates":[-82.490395,9.421257]}},{"type":"Feature","properties":{"time and day":"02:00.0","timestamp":"04:02:00"},"geometry":{"type":"Point","coordinates":[-82.490378,9.421248]}},{"type":"Feature","properties":{"time and day":"03:00.0","timestamp":"04:03:00"},"geometry":{"type":"Point","coordinates":[-82.490331,9.421256]}},{"type":"Feature","properties":{"time and day":"04:00.0","timestamp":"04:04:00"},"geometry":{"type":"Point","coordinates":[-82.490394,9.421304]}},{"type":"Feature","properties":{"time and day":"05:00.0","timestamp":"04:05:00"},"geometry":{"type":"Point","coordinates":[-82.490369,9.421303]}},{"type":"Feature","properties":{"time and day":"06:00.0","timestamp":"04:06:00"},"geometry":{"type":"Point","coordinates":[-82.490314,9.421264]}},{"type":"Feature","properties":{"time and day":"07:00.0","timestamp":"04:07:00"},"geometry":{"type":"Point","coordinates":[-82.490288,9.421324]}},{"type":"Feature","properties":{"time and day":"08:00.0","timestamp":"04:08:00"},"geometry":{"type":"Point","coordinates":[-82.49036,9.421302]}},{"type":"Feature","properties":{"time and day":"09:00.0","timestamp":"04:09:00"},"geometry":{"type":"Point","coordinates":[-82.490497,9.42128]}},{"type":"Feature","properties":{"time and day":"10:00.0","timestamp":"04:10:00"},"geometry":{"type":"Point","coordinates":[-82.490414,9.421323]}},{"type":"Feature","properties":{"time and day":"11:00.0","timestamp":"04:11:00"},"geometry":{"type":"Point","coordinates":[-82.490384,9.421268]}},{"type":"Feature","properties":{"time and day":"12:00.0","timestamp":"04:12:00"},"geometry":{"type":"Point","coordinates":[-82.490367,9.421199]}},{"type":"Feature","properties":{"time and day":"13:00.0","timestamp":"04:13:00"},"geometry":{"type":"Point","coordinates":[-82.490358,9.421299]}},{"type":"Feature","properties":{"time and day":"14:00.0","timestamp":"04:14:00"},"geometry":{"type":"Point","coordinates":[-82.490532,9.421232]}},{"type":"Feature","properties":{"time and day":"15:00.0","timestamp":"04:15:00"},"geometry":{"type":"Point","coordinates":[-82.490348,9.421241]}},{"type":"Feature","properties":{"time and day":"16:00.0","timestamp":"04:16:00"},"geometry":{"type":"Point","coordinates":[-82.490412,9.42123]}},{"type":"Feature","properties":{"time and day":"17:00.0","timestamp":"04:17:00"},"geometry":{"type":"Point","coordinates":[-82.490484,9.42125]}},{"type":"Feature","properties":{"time and day":"18:00.0","timestamp":"04:18:00"},"geometry":{"type":"Point","coordinates":[-82.490518,9.421266]}},{"type":"Feature","properties":{"time and day":"19:00.0","timestamp":"04:19:00"},"geometry":{"type":"Point","coordinates":[-82.490514,9.421315]}},{"type":"Feature","properties":{"time and day":"20:00.0","timestamp":"04:20:00"},"geometry":{"type":"Point","coordinates":[-82.490386,9.421298]}},{"type":"Feature","properties":{"time and day":"21:00.0","timestamp":"04:21:00"},"geometry":{"type":"Point","coordinates":[-82.490368,9.421269]}},{"type":"Feature","properties":{"time and day":"22:00.0","timestamp":"04:22:00"},"geometry":{"type":"Point","coordinates":[-82.490409,9.421266]}},{"type":"Feature","properties":{"time and day":"23:00.0","timestamp":"04:23:00"},"geometry":{"type":"Point","coordinates":[-82.490449,9.421291]}},{"type":"Feature","properties":{"time and day":"24:00.0","timestamp":"04:24:00"},"geometry":{"type":"Point","coordinates":[-82.490355,9.421297]}},{"type":"Feature","properties":{"time and day":"25:00.0","timestamp":"04:25:00"},"geometry":{"type":"Point","coordinates":[-82.490429,9.421291]}},{"type":"Feature","properties":{"time and day":"26:00.0","timestamp":"04:26:00"},"geometry":{"type":"Point","coordinates":[-82.490544,9.421378]}},{"type":"Feature","properties":{"time and day":"27:00.0","timestamp":"04:27:00"},"geometry":{"type":"Point","coordinates":[-82.490454,9.421228]}},{"type":"Feature","properties":{"time and day":"28:00.0","timestamp":"04:28:00"},"geometry":{"type":"Point","coordinates":[-82.49036,9.421133]}},{"type":"Feature","properties":{"time and day":"29:00.0","timestamp":"04:29:00"},"geometry":{"type":"Point","coordinates":[-82.490305,9.42127]}},{"type":"Feature","properties":{"time and day":"30:00.0","timestamp":"04:30:00"},"geometry":{"type":"Point","coordinates":[-82.490578,9.421198]}},{"type":"Feature","properties":{"time and day":"31:00.0","timestamp":"04:31:00"},"geometry":{"type":"Point","coordinates":[-82.490407,9.421262]}},{"type":"Feature","properties":{"time and day":"32:00.0","timestamp":"04:32:00"},"geometry":{"type":"Point","coordinates":[-82.490369,9.421257]}},{"type":"Feature","properties":{"time and day":"33:00.0","timestamp":"04:33:00"},"geometry":{"type":"Point","coordinates":[-82.490313,9.421301]}},{"type":"Feature","properties":{"time and day":"34:00.0","timestamp":"04:34:00"},"geometry":{"type":"Point","coordinates":[-82.490266,9.421228]}},{"type":"Feature","properties":{"time and day":"35:00.0","timestamp":"04:35:00"},"geometry":{"type":"Point","coordinates":[-82.490323,9.419605]}},{"type":"Feature","properties":{"time and day":"36:00.0","timestamp":"04:36:00"},"geometry":{"type":"Point","coordinates":[-82.490238,9.420544]}},{"type":"Feature","properties":{"time and day":"37:00.0","timestamp":"04:37:00"},"geometry":{"type":"Point","coordinates":[-82.490009,9.42013]}},{"type":"Feature","properties":{"time and day":"38:00.0","timestamp":"04:38:00"},"geometry":{"type":"Point","coordinates":[-82.488181,9.41908]}},{"type":"Feature","properties":{"time and day":"39:00.0","timestamp":"04:39:00"},"geometry":{"type":"Point","coordinates":[-82.482977,9.417441]}},{"type":"Feature","properties":{"time and day":"40:00.0","timestamp":"04:40:00"},"geometry":{"type":"Point","coordinates":[-82.477448,9.415796]}},{"type":"Feature","properties":{"time and day":"41:00.0","timestamp":"04:41:00"},"geometry":{"type":"Point","coordinates":[-82.472046,9.413609]}},{"type":"Feature","properties":{"time and day":"42:00.0","timestamp":"04:42:00"},"geometry":{"type":"Point","coordinates":[-82.466973,9.412173]}},{"type":"Feature","properties":{"time and day":"43:00.0","timestamp":"04:43:00"},"geometry":{"type":"Point","coordinates":[-82.462022,9.410857]}},{"type":"Feature","properties":{"time and day":"44:00.0","timestamp":"04:44:00"},"geometry":{"type":"Point","coordinates":[-82.45701,9.409581]}},{"type":"Feature","properties":{"time and day":"45:00.0","timestamp":"04:45:00"},"geometry":{"type":"Point","coordinates":[-82.452069,9.407899]}},{"type":"Feature","properties":{"time and day":"46:00.0","timestamp":"04:46:00"},"geometry":{"type":"Point","coordinates":[-82.446666,9.407039]}},{"type":"Feature","properties":{"time and day":"47:00.0","timestamp":"04:47:00"},"geometry":{"type":"Point","coordinates":[-82.441096,9.405962]}},{"type":"Feature","properties":{"time and day":"48:00.0","timestamp":"04:48:00"},"geometry":{"type":"Point","coordinates":[-82.435621,9.404787]}},{"type":"Feature","properties":{"time and day":"49:00.0","timestamp":"04:49:00"},"geometry":{"type":"Point","coordinates":[-82.430434,9.403515]}},{"type":"Feature","properties":{"time and day":"50:00.0","timestamp":"04:50:00"},"geometry":{"type":"Point","coordinates":[-82.425183,9.401958]}},{"type":"Feature","properties":{"time and day":"51:00.0","timestamp":"04:51:00"},"geometry":{"type":"Point","coordinates":[-82.420102,9.400613]}},{"type":"Feature","properties":{"time and day":"52:00.0","timestamp":"04:52:00"},"geometry":{"type":"Point","coordinates":[-82.415205,9.399506]}},{"type":"Feature","properties":{"time and day":"53:00.0","timestamp":"04:53:00"},"geometry":{"type":"Point","coordinates":[-82.410361,9.399205]}},{"type":"Feature","properties":{"time and day":"54:00.0","timestamp":"04:54:00"},"geometry":{"type":"Point","coordinates":[-82.405458,9.398622]}},{"type":"Feature","properties":{"time and day":"55:00.0","timestamp":"04:55:00"},"geometry":{"type":"Point","coordinates":[-82.400458,9.398034]}},{"type":"Feature","properties":{"time and day":"56:00.0","timestamp":"04:56:00"},"geometry":{"type":"Point","coordinates":[-82.39555,9.397718]}},{"type":"Feature","properties":{"time and day":"57:00.0","timestamp":"04:57:00"},"geometry":{"type":"Point","coordinates":[-82.390507,9.39766]}},{"type":"Feature","properties":{"time and day":"58:00.0","timestamp":"04:58:00"},"geometry":{"type":"Point","coordinates":[-82.385704,9.397502]}},{"type":"Feature","properties":{"time and day":"59:00.0","timestamp":"04:59:00"},"geometry":{"type":"Point","coordinates":[-82.380462,9.39759]}},{"type":"Feature","properties":{"time and day":"00:00.0","timestamp":"05:00:00"},"geometry":{"type":"Point","coordinates":[-82.375287,9.397707]}},{"type":"Feature","properties":{"time and day":"01:00.0","timestamp":"05:01:00"},"geometry":{"type":"Point","coordinates":[-82.371223,9.397486]}},{"type":"Feature","properties":{"time and day":"02:00.0","timestamp":"05:02:00"},"geometry":{"type":"Point","coordinates":[-82.366027,9.397742]}},{"type":"Feature","properties":{"time and day":"03:00.0","timestamp":"05:03:00"},"geometry":{"type":"Point","coordinates":[-82.361095,9.398263]}},{"type":"Feature","properties":{"time and day":"04:00.0","timestamp":"05:04:00"},"geometry":{"type":"Point","coordinates":[-82.355655,9.397776]}},{"type":"Feature","properties":{"time and day":"05:00.0","timestamp":"05:05:00"},"geometry":{"type":"Point","coordinates":[-82.349613,9.397764]}},{"type":"Feature","properties":{"time and day":"06:00.0","timestamp":"05:06:00"},"geometry":{"type":"Point","coordinates":[-82.343432,9.398201]}},{"type":"Feature","properties":{"time and day":"07:00.0","timestamp":"05:07:00"},"geometry":{"type":"Point","coordinates":[-82.337499,9.40003]}},{"type":"Feature","properties":{"time and day":"08:00.0","timestamp":"05:08:00"},"geometry":{"type":"Point","coordinates":[-82.331343,9.40151]}},{"type":"Feature","properties":{"time and day":"09:00.0","timestamp":"05:09:00"},"geometry":{"type":"Point","coordinates":[-82.325316,9.403059]}},{"type":"Feature","properties":{"time and day":"10:00.0","timestamp":"05:10:00"},"geometry":{"type":"Point","coordinates":[-82.319703,9.402651]}},{"type":"Feature","properties":{"time and day":"11:00.0","timestamp":"05:11:00"},"geometry":{"type":"Point","coordinates":[-82.314171,9.4028]}},{"type":"Feature","properties":{"time and day":"12:00.0","timestamp":"05:12:00"},"geometry":{"type":"Point","coordinates":[-82.309467,9.401925]}},{"type":"Feature","properties":{"time and day":"13:00.0","timestamp":"05:13:00"},"geometry":{"type":"Point","coordinates":[-82.305582,9.400448]}},{"type":"Feature","properties":{"time and day":"14:00.0","timestamp":"05:14:00"},"geometry":{"type":"Point","coordinates":[-82.301269,9.399148]}},{"type":"Feature","properties":{"time and day":"15:00.0","timestamp":"05:15:00"},"geometry":{"type":"Point","coordinates":[-82.296839,9.397306]}},{"type":"Feature","properties":{"time and day":"16:00.0","timestamp":"05:16:00"},"geometry":{"type":"Point","coordinates":[-82.293185,9.39472]}},{"type":"Feature","properties":{"time and day":"17:00.0","timestamp":"05:17:00"},"geometry":{"type":"Point","coordinates":[-82.290129,9.39293]}},{"type":"Feature","properties":{"time and day":"18:00.0","timestamp":"05:18:00"},"geometry":{"type":"Point","coordinates":[-82.28637,9.391869]}},{"type":"Feature","properties":{"time and day":"19:00.0","timestamp":"05:19:00"},"geometry":{"type":"Point","coordinates":[-82.283938,9.389701]}},{"type":"Feature","properties":{"time and day":"20:00.0","timestamp":"05:20:00"},"geometry":{"type":"Point","coordinates":[-82.280343,9.388451]}},{"type":"Feature","properties":{"time and day":"21:00.0","timestamp":"05:21:00"},"geometry":{"type":"Point","coordinates":[-82.277376,9.389186]}},{"type":"Feature","properties":{"time and day":"22:00.0","timestamp":"05:22:00"},"geometry":{"type":"Point","coordinates":[-82.27691,9.389491]}},{"type":"Feature","properties":{"time and day":"23:00.0","timestamp":"05:23:00"},"geometry":{"type":"Point","coordinates":[-82.275209,9.390416]}},{"type":"Feature","properties":{"time and day":"24:00.0","timestamp":"05:24:00"},"geometry":{"type":"Point","coordinates":[-82.273135,9.393838]}}]}